IRIDIUM 921             
1 24873U 97034E   24218.14885907  .00066496  00000+0  15001-2 0  9995
2 24873  86.3764 263.8052 0005667  85.4167 274.7735 15.42962494483007
IRIDIUM 26              
1 24903U 97043A   24217.81293925  .00001004  00000+0  33592-3 0  9995
2 24903  86.3925 243.3472 0002509  89.3666 270.7818 14.36464912411315
IRIDIUM 22              
1 24907U 97043E   24217.83654821  .00000931  00000+0  31793-3 0  9996
2 24907  86.3927 246.6133 0002278  91.9614 268.1843 14.35350557411380
DUMMY MASS 1            
1 24925U 97048A   24218.20687265  .00000890  00000+0  97935-4 0  9996
2 24925  86.3330 281.3385 0006975 166.6057 193.5354 14.86318639458427
DUMMY MASS 2            
1 24926U 97048B   24217.91479973  .00001014  00000+0  11273-3 0  9998
2 24926  86.3332 283.0257 0007227 180.5355 179.5863 14.86076496457929
IRIDIUM 29              
1 24944U 97051A   24217.89385365  .00000937  00000+0  31730-3 0  9993
2 24944  86.3932 276.4829 0002163  99.2487 260.8954 14.35804493407876
IRIDIUM 33              
1 24946U 97051C   24217.89685216  .00000670  00000+0  23096-3 0  9993
2 24946  86.3847 275.7300 0009199  43.4333 316.7586 14.34439149407396
IRIDIUM 28              
1 24948U 97051E   24217.86542675  .00000958  00000+0  31841-3 0  9999
2 24948  86.3936 274.1890 0002577  85.8626 274.2865 14.36759960408489
